[{"OBJECT_NAME":"STARLINK-30142","OBJECT_ID":"2023-079P","EPOCH":"2026-03-09T03:35:01.920192","MEAN_MOTION":15.27563421,"ECCENTRICITY":9.284e-5,"INCLINATION":42.9981,"RA_OF_ASC_NODE":106.8569,"ARG_OF_PERICENTER":278.1929,"MEAN_ANOMALY":81.8818,"EPHEMERIS_TYPE":0,"CLASSIFICATION_TYPE":"U","NORAD_CAT_ID":56836,"ELEMENT_SET_NO":999,"REV_AT_EPOCH":15284,"BSTAR":-2.5056361e-5,"MEAN_MOTION_DOT":-9.51e-6,"MEAN_MOTION_DDOT":0},{"OBJECT_NAME":"PEGASUS R\/B","OBJECT_ID":"2007-015B","EPOCH":"2026-03-09T10:58:33.801024","MEAN_MOTION":15.26741121,"ECCENTRICITY":0.00105976,"INCLINATION":97.9168,"RA_OF_ASC_NODE":31.3919,"ARG_OF_PERICENTER":317.6341,"MEAN_ANOMALY":42.4077,"EPHEMERIS_TYPE":0,"CLASSIFICATION_TYPE":"U","NORAD_CAT_ID":31305,"ELEMENT_SET_NO":999,"REV_AT_EPOCH":3383,"BSTAR":0.00044093522,"MEAN_MOTION_DOT":0.00011537,"MEAN_MOTION_DDOT":0}]
